CTC2_L_00650007-03
1 13404U 23182YG  26070.40851852  .00000000  00000+0  00000-0 0  9995
2 13404  70.0000 180.0000 0000000   0.0000 144.0000  3.78963984    17
CTC2_L_00650007-04
1 13405U 25420TQ  26070.40851852  .00000000  00000+0  00000-0 0  9993
2 13405  70.0000 180.0000 0000000   0.0000 180.0000  3.78963984    18
CTC2_L_00650007-05
1 13406U 26216BO  26070.40851852  .00000000  00000+0  00000-0 0  9998
2 13406  70.0000 180.0000 0000000   0.0000 216.0000  3.78963984    19
CTC2_L_00650007-06
1 13407U 23454RC  26070.40851852  .00000000  00000+0  00000-0 0  9990
2 13407  70.0000 180.0000 0000000   0.0000 252.0000  3.78963984    10
CTC2_L_00650007-07
1 13408U 26172YU  26070.40851852  .00000000  00000+0  00000-0 0  9991
2 13408  70.0000 180.0000 0000000   0.0000 288.0000  3.78963984    10
CTC2_L_00650007-08
1 13409U 26237HT  26070.40851852  .00000000  00000+0  00000-0 0  9994
2 13409  70.0000 180.0000 0000000   0.0000 324.0000  3.78963984    12
CTC2_L_00650007-09
1 13410U 22467KJ  26070.40851852  .00000000  00000+0  00000-0 0  9997
2 13410  70.0000 180.0000 0000000   0.0000   0.0000  3.78963984    15
CTC2_L_00650007-10
1 13411U 26357GU  26070.40851852  .00000000  00000+0  00000-0 0  9990
2 13411  70.0000 180.0000 0000000   0.0000  36.0000  3.78963984    15
CTC2_L_00650008-01
1 13412U 23540GO  26070.40851852  .00000000  00000+0  00000-0 0  9992
2 13412  70.0000 210.0000 0000000   0.0000  84.0000  3.78963984    13
CTC2_L_00650008-02
1 13413U 24280CG  26070.40851852  .00000000  00000+0  00000-0 0  9995
2 13413  70.0000 210.0000 0000000   0.0000 120.0000  3.78963984    15
CTC2_L_00650008-03
1 13414U 25073TR  26070.40851852  .00000000  00000+0  00000-0 0  9997
2 13414  70.0000 210.0000 0000000   0.0000 156.0000  3.78963984    15
CTC2_L_00650008-04
1 13415U 22383JU  26070.40851852  .00000000  00000+0  00000-0 0  9999
2 13415  70.0000 210.0000 0000000   0.0000 192.0000  3.78963984    16
CTC2_L_00650008-05
1 13416U 26888UE  26070.40851852  .00000000  00000+0  00000-0 0  9994
2 13416  70.0000 210.0000 0000000   0.0000 228.0000  3.78963984    17
CTC2_L_00650008-06
1 13417U 26152WO  26070.40851852  .00000000  00000+0  00000-0 0  9999
2 13417  70.0000 210.0000 0000000   0.0000 264.0000  3.78963984    18
CTC2_L_00650008-07
1 13418U 24806EG  26070.40851852  .00000000  00000+0  00000-0 0  9994
2 13418  70.0000 210.0000 0000000   0.0000 300.0000  3.78963984    10
CTC2_L_00650008-08
1 13419U 22980HF  26070.40851852  .00000000  00000+0  00000-0 0  9996
2 13419  70.0000 210.0000 0000000   0.0000 336.0000  3.78963984    10
CTC2_L_00650008-09
1 13420U 22103FY  26070.40851852  .00000000  00000+0  00000-0 0  9995
2 13420  70.0000 210.0000 0000000   0.0000  12.0000  3.78963984    13
CTC2_L_00650008-10
1 13421U 23670SO  26070.40851852  .00000000  00000+0  00000-0 0  9996
2 13421  70.0000 210.0000 0000000   0.0000  48.0000  3.78963984    13
CTC2_L_00650009-01
1 13422U 25278HT  26070.40851852  .00000000  00000+0  00000-0 0  9993
2 13422  70.0000 240.0000 0000000   0.0000  96.0000  3.78963984    10
CTC2_L_00650009-02
1 13423U 23795FI  26070.40851852  .00000000  00000+0  00000-0 0  9996
2 13423  70.0000 240.0000 0000000   0.0000 132.0000  3.78963984    12
CTC2_L_00650009-03
1 13424U 23345CM  26070.40851852  .00000000  00000+0  00000-0 0  9998
2 13424  70.0000 240.0000 0000000   0.0000 168.0000  3.78963984    12
CTC2_L_00650009-04
1 13425U 25175ZI  26070.40851852  .00000000  00000+0  00000-0 0  9992
2 13425  70.0000 240.0000 0000000   0.0000 204.0000  3.78963984    14
CTC2_L_00650009-05
1 13426U 25405NM  26070.40851852  .00000000  00000+0  00000-0 0  9999
2 13426  70.0000 240.0000 0000000   0.0000 240.0000  3.78963984    15
CTC2_L_00650009-06
1 13427U 26432KZ  26070.40851852  .00000000  00000+0  00000-0 0  9991
2 13427  70.0000 240.0000 0000000   0.0000 276.0000  3.78963984    15
CTC2_L_00650009-07
1 13428U 24310XK  26070.40851852  .00000000  00000+0  00000-0 0  9995
2 13428  70.0000 240.0000 0000000   0.0000 312.0000  3.78963984    17
CTC2_L_00650009-08
1 13429U 23293IH  26070.40851852  .00000000  00000+0  00000-0 0  9995
2 13429  70.0000 240.0000 0000000   0.0000 348.0000  3.78963984    17
CTC2_L_00650009-09
1 13430U 26462KC  26070.40851852  .00000000  00000+0  00000-0 0  9998
2 13430  70.0000 240.0000 0000000   0.0000  24.0000  3.78963984    10
CTC2_L_00650009-10
1 13431U 24563CX  26070.40851852  .00000000  00000+0  00000-0 0  9999
2 13431  70.0000 240.0000 0000000   0.0000  60.0000  3.78963984    11
CTC2_L_00650010-01
1 13432U 25560XP  26070.40851852  .00000000  00000+0  00000-0 0  9998
2 13432  70.0000 270.0000 0000000   0.0000 108.0000  3.78963984    18
CTC2_L_00650010-02
1 13433U 22691FS  26070.40851852  .00000000  00000+0  00000-0 0  9991
2 13433  70.0000 270.0000 0000000   0.0000 144.0000  3.78963984    19
CTC2_L_00650010-03
1 13434U 26190FP  26070.40851852  .00000000  00000+0  00000-0 0  9990
2 13434  70.0000 270.0000 0000000   0.0000 180.0000  3.78963984    10
CTC2_L_00650010-04
1 13435U 23049VF  26070.40851852  .00000000  00000+0  00000-0 0  9991
2 13435  70.0000 270.0000 0000000   0.0000 216.0000  3.78963984    11
CTC2_L_00650010-05
1 13436U 25339VU  26070.40851852  .00000000  00000+0  00000-0 0  9996
2 13436  70.0000 270.0000 0000000   0.0000 252.0000  3.78963984    12
CTC2_L_00650010-06
1 13437U 26820CP  26070.40851852  .00000000  00000+0  00000-0 0  9993
2 13437  70.0000 270.0000 0000000   0.0000 288.0000  3.78963984    12
CTC2_L_00650010-07
1 13438U 25967AC  26070.40851852  .00000000  00000+0  00000-0 0  9995
2 13438  70.0000 270.0000 0000000   0.0000 324.0000  3.78963984    14
CTC2_L_00650010-08
1 13439U 23008VB  26070.40851852  .00000000  00000+0  00000-0 0  9990
2 13439  70.0000 270.0000 0000000   0.0000   0.0000  3.78963984    16
CTC2_L_00650010-09
1 13440U 24415HO  26070.40851852  .00000000  00000+0  00000-0 0  9995
2 13440  70.0000 270.0000 0000000   0.0000  36.0000  3.78963984    17
CTC2_L_00650010-10
1 13441U 25279ZV  26070.40851852  .00000000  00000+0  00000-0 0  9995
2 13441  70.0000 270.0000 0000000   0.0000  72.0000  3.78963984    18
CTC2_L_00650011-01
1 13442U 25814RA  26070.40851852  .00000000  00000+0  00000-0 0  9991
2 13442  70.0000 300.0000 0000000   0.0000 120.0000  3.78963984    17
CTC2_L_00650011-02
1 13443U 24954DQ  26070.40851852  .00000000  00000+0  00000-0 0  9996
2 13443  70.0000 300.0000 0000000   0.0000 156.0000  3.78963984    17
CTC2_L_00650011-03
1 13444U 22425DS  26070.40851852  .00000000  00000+0  00000-0 0  9998
2 13444  70.0000 300.0000 0000000   0.0000 192.0000  3.78963984    18
CTC2_L_00650011-04
1 13445U 23292TZ  26070.40851852  .00000000  00000+0  00000-0 0  9992
2 13445  70.0000 300.0000 0000000   0.0000 228.0000  3.78963984    19
CTC2_L_00650011-05
1 13446U 22425JK  26070.40851852  .00000000  00000+0  00000-0 0  9990
2 13446  70.0000 300.0000 0000000   0.0000 264.0000  3.78963984    10
CTC2_L_00650011-06
1 13447U 23379EJ  26070.40851852  .00000000  00000+0  00000-0 0  9990
2 13447  70.0000 300.0000 0000000   0.0000 300.0000  3.78963984    12
CTC2_L_00650011-07
1 13448U 22992KD  26070.40851852  .00000000  00000+0  00000-0 0  9991
2 13448  70.0000 300.0000 0000000   0.0000 336.0000  3.78963984    12
CTC2_L_00650011-08
1 13449U 24171HH  26070.40851852  .00000000  00000+0  00000-0 0  9993
2 13449  70.0000 300.0000 0000000   0.0000  12.0000  3.78963984    14
CTC2_L_00650011-09
1 13450U 25836AH  26070.40851852  .00000000  00000+0  00000-0 0  9994
2 13450  70.0000 300.0000 0000000   0.0000  48.0000  3.78963984    15
CTC2_L_00650011-10
1 13451U 24631OS  26070.40851852  .00000000  00000+0  00000-0 0  9997
2 13451  70.0000 300.0000 0000000   0.0000  84.0000  3.78963984    16
CTC2_L_00650012-01
1 13452U 23068JP  26070.40851852  .00000000  00000+0  00000-0 0  9991
2 13452  70.0000 330.0000 0000000   0.0000 132.0000  3.78963984    14
CTC2_L_00650012-02
1 13453U 22244BN  26070.40851852  .00000000  00000+0  00000-0 0  9997
2 13453  70.0000 330.0000 0000000   0.0000 168.0000  3.78963984    14
CTC2_L_00650012-03
1 13454U 23084WS  26070.40851852  .00000000  00000+0  00000-0 0  9991
2 13454  70.0000 330.0000 0000000   0.0000 204.0000  3.78963984    16
CTC2_L_00650012-04
1 13455U 23148TQ  26070.40851852  .00000000  00000+0  00000-0 0  9993
2 13455  70.0000 330.0000 0000000   0.0000 240.0000  3.78963984    17
CTC2_L_00650012-05
1 13456U 25221IT  26070.40851852  .00000000  00000+0  00000-0 0  9998
2 13456  70.0000 330.0000 0000000   0.0000 276.0000  3.78963984    17
CTC2_L_00650012-06
1 13457U 25833XJ  26070.40851852  .00000000  00000+0  00000-0 0  9998
2 13457  70.0000 330.0000 0000000   0.0000 312.0000  3.78963984    19
CTC2_L_00650012-07
1 13458U 25940NV  26070.40851852  .00000000  00000+0  00000-0 0  9998
2 13458  70.0000 330.0000 0000000   0.0000 348.0000  3.78963984    19
CTC2_L_00650012-08
1 13459U 24070GG  26070.40851852  .00000000  00000+0  00000-0 0  9992
2 13459  70.0000 330.0000 0000000   0.0000  24.0000  3.78963984    11
CTC2_L_00650012-09
1 13460U 25015JU  26070.40851852  .00000000  00000+0  00000-0 0  9994
2 13460  70.0000 330.0000 0000000   0.0000  60.0000  3.78963984    13
CTC2_L_00650012-10
1 13461U 24538FP  26070.40851852  .00000000  00000+0  00000-0 0  9994
2 13461  70.0000 330.0000 0000000   0.0000  96.0000  3.78963984    13
